73P-AN/Schwassmann-Wachmann,e,11.393,69.870,198.820,3.06185,0.183962,0.6933024,359.940,06/08.0/2006,2000,g  9.0,4.0
# From MPC 56799
73P-AO/Schwassmann-Wachmann,e,11.210,71.286,197.007,3.07823,0.182496,0.6933024,359.853,06/07.0/2006,2000,g  9.0,4.0
# From MPC 56799
73P-AP/Schwassmann-Wachmann,e,11.393,69.895,198.794,3.06223,0.183928,0.6933024,359.874,06/06.0/2006,2000,g  9.0,4.0
# From MPC 56799
73P-AQ/Schwassmann-Wachmann,e,11.387,69.911,198.770,3.06230,0.183921,0.6933024,359.831,06/07.0/2006,2000,g  9.0,4.0
# From MPC 56799
73P-AR/Schwassmann-Wachmann,e,11.385,69.946,198.722,3.06285,0.183872,0.6933024,359.847,06/06.0/2006,2000,g  9.0,4.0
# From MPC 56799
73P-AS/Schwassmann-Wachmann,e,11.392,69.906,198.773,3.06237,0.183915,0.6933024,359.938,06/06.0/2006,2000,g  9.0,4.0
# From MPC 56799
73P-AT/Schwassmann-Wachmann,e,11.391,69.901,198.778,3.06248,0.183905,0.6933024,359.958,06/06.0/2006,2000,g  9.0,4.0
# From MPC 56799
73P-AU/Schwassmann-Wachmann,e,11.385,69.928,198.744,3.06261,0.183894,0.6933024,359.983,06/08.0/2006,2000,g  9.0,4.0
# From MPC 56800
73P-AV/Schwassmann-Wachmann,e,11.388,69.945,198.751,3.06263,0.183892,0.6933024,359.910,06/06.0/2006,2000,g  9.0,4.0
# From MPC 56800
73P-AW/Schwassmann-Wachmann,e,11.377,69.982,198.673,3.06318,0.183843,0.6933024,359.859,06/07.0/2006,2000,g  9.0,4.0
# From MPC 56800
73P-AX/Schwassmann-Wachmann,e,11.388,69.915,198.757,3.06205,0.183944,0.6933024,359.902,06/09.0/2006,2000,g  9.0,4.0
# From MPC 56800
73P-AY/Schwassmann-Wachmann,e,11.385,69.923,198.750,3.06223,0.183927,0.6933024,359.860,06/08.0/2006,2000,g  9.0,4.0
# From MPC 56800
73P-AZ/Schwassmann-Wachmann,e,11.371,70.002,198.644,3.06367,0.183798,0.6933024,359.905,06/06.0/2006,2000,g  9.0,4.0
# From MPC 56800
73P-BA/Schwassmann-Wachmann,e,11.364,70.042,198.588,3.06413,0.183756,0.6933024,359.920,06/06.0/2006,2000,g  9.0,4.0
# From MPC 56800
73P-BB/Schwassmann-Wachmann,e,11.395,69.882,198.807,3.06205,0.183944,0.6933024,359.984,06/07.0/2006,2000,g  9.0,4.0
# From MPC 56800
73P-BC/Schwassmann-Wachmann,e,11.391,69.901,198.778,3.06235,0.183917,0.6933024,359.877,06/06.0/2006,2000,g  9.0,4.0
# From MPC 56800
73P-BD/Schwassmann-Wachmann,e,11.352,70.085,198.503,3.06483,0.183694,0.6933024,359.923,06/06.0/2006,2000,g  9.0,4.0
# From MPC 56800
73P-BE/Schwassmann-Wachmann,e,11.405,69.841,198.861,3.06171,0.183975,0.6933024,359.841,06/06.0/2006,2000,g  9.0,4.0
# From MPC 56800
73P-BF/Schwassmann-Wachmann,e,11.390,69.908,198.752,3.06223,0.183928,0.6933024,359.818,06/06.0/2006,2000,g  9.0,4.0
# From MPC 56800
73P-BG/Schwassmann-Wachmann,e,11.384,69.925,198.750,3.06214,0.183936,0.6933024,359.864,06/08.0/2006,2000,g  9.0,4.0
# From MPC 56801
73P-BH/Schwassmann-Wachmann,e,11.410,69.752,198.947,3.06079,0.184058,0.6933024,359.895,06/08.0/2006,2000,g  9.0,4.0
# From MPC 56801
73P-BI/Schwassmann-Wachmann,e,11.404,69.819,198.877,3.06179,0.183967,0.6933024,359.882,06/08.0/2006,2000,g  9.0,4.0
# From MPC 56801
73P-BJ/Schwassmann-Wachmann,e,11.389,69.905,198.776,3.06209,0.183941,0.6933024,359.877,06/08.0/2006,2000,g  9.0,4.0
# From MPC 56801
73P-BK/Schwassmann-Wachmann,e,11.379,69.970,198.698,3.06264,0.183891,0.6933024,359.837,06/08.0/2006,2000,g  9.0,4.0
# From MPC 56801
73P-BL/Schwassmann-Wachmann,e,11.385,69.930,198.739,3.06239,0.183914,0.6933024,359.837,06/08.0/2006,2000,g  9.0,4.0
# From MPC 56801
73P-BM/Schwassmann-Wachmann,e,11.364,70.086,198.546,3.06367,0.183798,0.6933024,359.827,06/08.0/2006,2000,g  9.0,4.0
# From MPC 56801
73P-BN/Schwassmann-Wachmann,e,11.398,69.871,198.815,3.06180,0.183967,0.6933024,359.963,06/08.0/2006,2000,g  9.0,4.0
# From MPC 56801
73P-BO/Schwassmann-Wachmann,e,11.390,69.903,198.765,3.06206,0.183943,0.6933024,359.952,06/08.0/2006,2000,g  9.0,4.0
# From MPC 56801
73P-BP/Schwassmann-Wachmann,e,11.395,69.881,198.807,3.06196,0.183952,0.6933024,359.944,06/08.0/2006,2000,g  9.0,4.0
# From MPC 56801
73P-BQ/Schwassmann-Wachmann,e,11.404,69.836,198.862,3.06166,0.183979,0.6933024,359.945,06/08.0/2006,2000,g  9.0,4.0
# From MPC 56957
73P-BR/Schwassmann-Wachmann,e,11.389,69.910,198.774,3.06233,0.183918,0.6933024,359.971,06/06.0/2006,2000,g  9.0,4.0
# From MPC 56957
73P-BS/Schwassmann-Wachmann,e,11.399,69.885,198.814,3.06224,0.183927,0.6933024,359.847,06/05.0/2006,2000,g  9.0,4.0
# From MPC106348
73P-BT/Schwassmann-Wachmann,e,11.1261,198.8277,69.8964,3.084552,0.1819348,0.69102443,125.9588,07/22.0/2024,2000,g 11.5,6.0
# From MPEC 2022-P18
73P-BU/Schwassmann-Wachmann,e,11.0281,199.5744,70.7448,2.870013,0.2027115,0.66993181,140.9797,07/22.0/2024,2000,g 19.0,4.0
# From MPEC 2022-X67
73P-BV/Schwassmann-Wachmann,e,11.3549,69.3877,199.0148,3.132244,0.1777955,0.69755362,123.3075,07/22.0/2024,2000,g 19.0,4.0
# From MPEC 2022-R15
73P-BW/Schwassmann-Wachmann,e,10.3029,193.7394,70.9946,4.535725,0.1020314,0.78837169,70.9662,07/22.0/2024,2000,g 18.2,4.0
# From MPEC 2023-A50
73P-BX/Schwassmann-Wachmann,e,11.3659,69.3845,199.0505,3.112216,0.1795145,0.69528903,124.4559,07/22.0/2024,2000,g 17.5,4.0
# From MPEC 2022-R15
73P-BY/Schwassmann-Wachmann,e,11.1151,198.9301,69.9799,3.025837,0.1872560,0.68501049,130.2275,07/22.0/2024,2000,g 17.4,4.0
# From MPEC 2024-EF7
74P/Smirnova-Chernykh,e,6.4379,53.7231,108.5095,4.897206,0.0909456,0.03479861,255.1971,07/22.0/2024,2000,g  5.0,6.0
# From CCO 7
75D/Kohoutek,e,5.9261,269.5526,175.5591,3.537245,0.1481516,0.49939629,182.4761,07/22.0/2024,2000,g  9.5,6.0
# From MPEC 2022-K19
76P/West-Kohoutek-Ikemura,e,30.4883,84.1118,359.9647,3.468671,0.1525666,0.53935598,263.8001,07/22.0/2024,2000,g  8.0,12.0
# From MPEC 2023-TM6
77P/Longmore,e,24.3193,14.7593,196.6667,3.621702,0.1429997,0.35166122,68.0826,07/22.0/2024,2000,g  7.0,8.0
# From MPEC 2021-O56
78P/Gehrels,e,6.2566,210.5288,192.7043,3.735097,0.1365373,0.46318651,264.0126,07/22.0/2024,2000,g  5.5,8.0
# From MPC 94675
79P/du Toit-Hartley,e,3.1489,281.7725,280.5167,2.943440,0.1951737,0.61919632,57.7043,07/22.0/2024,2000,g 16.0,4.0
# From MPEC 2023-RF3
80P/Peters-Hartley,e,29.9248,259.7782,339.2851,4.022633,0.1221626,0.59806566,72.2387,07/22.0/2024,2000,g  9.0,8.0
# From MPEC 2024-F91
81P/Wild,e,3.2371,136.0937,41.5766,3.452422,0.1536450,0.53733261,89.7916,07/22.0/2024,2000,g  7.0,6.0
# From MPC133426
82P/Gehrels,e,1.1292,239.2277,226.4330,4.132049,0.1173426,0.12255381,260.6119,07/22.0/2024,2000,g 15.0,4.0
# From NK 932
83D/Russell,e,17.8271,226.3030,334.4176,3.843822,0.1307854,0.44130147,151.2944,07/22.0/2024,2000,g  9.0,4.0
# From MPEC 2020-FB5
84P/Giclas,e,7.5517,108.1532,281.6640,3.550112,0.1473469,0.51596485,222.1894,07/22.0/2024,2000,g  9.5,8.0
# From unp
85D/Boethin,e,4.1741,65.2850,333.0801,5.044771,0.0869845,0.77622247,126.3549,07/22.0/2024,2000,g  6.5,8.0
# From MPEC 2022-YB4
86P/Wild,e,15.5296,72.0848,180.8103,3.630211,0.1424972,0.36857600,127.5497,07/22.0/2024,2000,g 11.0,6.0
# From MPEC 2020-SI8
87P/Bus,e,2.7105,186.3802,51.5397,4.309437,0.1101725,0.23041295,172.6613,07/22.0/2024,2000,g  7.2,10.0
# From MPEC 2024-C04
88P/Howell,e,4.3820,56.6670,235.9094,3.107514,0.1799221,0.56318032,251.1717,07/22.0/2024,2000,g 11.0,6.0
# From MPEC 2024-O39
89P/Russell,e,12.0721,41.3445,250.4005,3.751038,0.1356678,0.40767266,15.9275,07/22.0/2024,2000,g 11.5,6.0
# From MPEC 2022-K19
90P/Gehrels,e,9.6459,13.2089,29.1335,6.052510,0.0661913,0.51104520,171.1186,07/22.0/2024,2000,g  8.5,6.0
# From MPEC 2023-VM5
91P/Russell,e,16.7010,242.7114,359.2061,4.013545,0.1225778,0.29460668,174.4189,07/22.0/2024,2000,g  7.5,6.0
# From MPEC 2014-J58
92P/Sanguin,e,19.4903,181.3746,163.7988,5.343069,0.0798028,0.66038076,273.1683,07/22.0/2024,2000,g 12.0,6.0
# From NK 2707
93P/Lovas,e,12.2061,339.5703,74.9719,4.376434,0.1076524,0.61402203,290.0437,07/22.0/2024,2000,g  9.0,4.0
# From MPEC 2024-F91
94P/Russell,e,6.1880,70.8519,92.3924,3.510484,0.1498489,0.36574177,64.1287,07/22.0/2024,2000,g  9.0,6.0
# From MPC 75717
95P/Chiron,e,6.9235,209.1979,339.3795,13.70761,0.0194206,0.37716931,203.2304,07/22.0/2024,2000,g  6.5,2.0
# From MPEC 2023-N01
96P/Machholz,e,57.5623,93.9577,14.7392,3.030934,0.1867838,0.96164926,100.4636,07/22.0/2024,2000,g 13.0,4.8
# From MPC106348
96P-B/Machholz,e,57.5029,14.6926,93.9635,3.030061,0.1868646,0.96166780,100.5115,07/22.0/2024,2000,g 13.0,4.8
# From MPC103849
96P-C/Machholz,e,58.5311,94.3495,15.5380,3.011920,0.1885553,0.95889850,359.8715,07/14.0/2012,2000,g  9.0,4.0
# From MPEC 2024-GJ3
97P/Metcalf-Brewington,e,17.9464,184.0803,230.1289,4.767445,0.0946838,0.46024995,83.9811,07/22.0/2024,2000,g  5.5,6.0
# From MPEC 2021-W31
98P/Takamizawa,e,10.5803,114.6095,157.7156,3.788469,0.1336621,0.56315985,173.0943,07/22.0/2024,2000,g  9.0,8.0
# From MPEC 2024-JU4
99P/Kowal,e,4.3392,28.0875,174.6250,6.096010,0.0654841,0.22854217,54.6320,07/22.0/2024,2000,g  4.5,6.0
# From MPEC 2023-OA6
100P/Hartley,e,25.5674,37.6855,181.9620,3.430560,0.1551160,0.41153482,110.3413,07/22.0/2024,2000,g  9.0,8.0
# From MPEC 2024-EF7
101P/Chernykh,e,5.0489,116.1497,277.9147,5.814548,0.0702959,0.59612028,116.0957,07/22.0/2024,2000,g 10.0,4.8
# From MPC105241
101P-B/Chernykh,e,5.0500,278.5330,115.5341,5.830055,0.0700156,0.59633099,114.3884,07/22.0/2024,2000,g  9.0,4.0
# From MPEC 2022-C56
102P/Shoemaker,e,25.8659,339.4082,20.6720,3.818907,0.1320673,0.45645936,168.6114,07/22.0/2024,2000,g  6.5,8.0
# From MPEC 2024-NE4
103P/Hartley,e,13.6106,219.7497,181.3078,3.474665,0.1521720,0.69370219,43.1404,07/22.0/2024,2000,g  8.5,8.0
# From MPEC 2023-G31
104P/Kowal,e,5.7027,207.2046,227.2661,3.208700,0.1714788,0.66591089,158.0945,07/22.0/2024,2000,g 16.0,4.0
# From MPEC 2024-F34
105P/SingerBrewster,e,9.1680,192.3983,46.3475,3.472031,0.1523452,0.40898277,331.8463,07/22.0/2024,2000,g 11.5,6.0
# From MPEC 2023-UR6
106P/Schuster,e,19.5398,48.8629,353.7792,3.767403,0.1347848,0.59384078,143.9349,07/22.0/2024,2000,g 14.0,4.8
# From MPEC 2015-M77
107P/Wilson-Harrington,e,2.7985,266.7397,95.5104,2.625467,0.2316831,0.63128848,161.5916,07/22.0/2024,2000,g  9.0,4.0
# From MPEC 2022-P82
108P/Ciffreo,e,11.4358,50.2985,354.5116,3.742890,0.1361111,0.55600151,142.3111,07/22.0/2024,2000,g  8.0,12.0
# From  105, 420
